MALLIGYONG-1            
1 58400U 23179A   24018.15944087  .00009754  00000+0  42874-3 0  9994
2 58400  97.4243 267.1814 0017662  77.1855 283.1353 15.21962151  8750
